FENGYUN 3D              
1 43010U 17072A   26199.93142017 -.00000197  00000+0 -71223-4 0  9996
2 43010  99.0151 174.9309 0001328   6.5717 353.5476 14.19743969449494
NOAA 20 (JPSS-1)        
1 43013U 17073A   26199.93160338  .00000031  00000+0  35547-4 0  9990
2 43013  98.7772 139.1131 0001524 120.4647 239.6680 14.19516914448975
GOES 17                 
1 43226U 18022A   26199.57753144 -.00000190  00000+0  00000+0 0  9992
2 43226   1.0159  85.2106 0000625  68.0976 261.4779  1.00270818 30732
SENTINEL-3B             
1 43437U 18039A   26199.88840155  .00000040  00000+0  34743-4 0  9996
2 43437  98.6233 266.9633 0001232 118.8601 241.2703 14.26736983428644
FENGYUN 2H              
1 43491U 18050A   26199.78239336 -.00000134  00000+0  00000+0 0  9990
2 43491   3.1110  78.7054 0002207 132.7913  85.8178  1.00266889 29757
METOP-C                 
1 43689U 18087A   26199.88309896  .00000030  00000+0  33682-4 0  9990
2 43689  98.6627 258.9046 0002119  88.9010 271.2410 14.21503433399333
GEO-KOMPSAT-2A          
1 43823U 18100A   26199.71898374 -.00000350  00000+0  00000+0 0  9991
2 43823   0.0293 155.2838 0002339 300.9900 227.3318  1.00272974 27946
METEOR-M2 2             
1 44387U 19038A   26199.92559899 -.00000063  00000+0 -72606-5 0  9996
2 44387  98.9165 187.6824 0000458 354.2744   5.8429 14.24373424365813
ARKTIKA-M 1             
1 47719U 21016A   26195.40739072 -.00000301  00000+0  00000+0 0  9996
2 47719  63.2662  53.6722 7297332 270.0591  14.4994  2.00611590 39330
FENGYUN 3E              
1 49008U 21062A   26199.91178541  .00000104  00000+0  69725-4 0  9992
2 49008  98.7502 202.9672 0002058  32.6040 327.5263 14.19907065261089
GOES 18                 
1 51850U 22021A   26199.59975374  .00000090  00000+0  00000+0 0  9999
2 51850   0.0124  94.1316 0000470  73.8898 207.2831  1.00272027  6905
NOAA 21 (JPSS-2)        
1 54234U 22150A   26199.89335563  .00000003  00000+0  22174-4 0  9999
2 54234  98.7059 138.1501 0002899  98.2068 261.9437 14.19541411191046
METEOSAT-12 (MTG-I1)    
1 54743U 22170C   26199.79072490 -.00000015  00000+0  00000+0 0  9995
2 54743   0.7290  20.3648 0003969  81.2614 119.2576  1.00268791 13295
TIANMU-1 03             
1 55973U 23039A   26199.92420201  .00008718  00000+0  16804-3 0  9998
2 55973  97.5249  15.1587 0002257  14.0943 346.0370 15.48108802185746
TIANMU-1 04             
1 55974U 23039B   26199.96572762  .00009168  00000+0  17278-3 0  9999
2 55974  97.5190  14.3582 0002644 357.9862   2.1377 15.48739737185763
TIANMU-1 05             
1 55975U 23039C   26199.90652280  .00008593  00000+0  16609-3 0  9996
2 55975  97.5234  14.7433 0002636  36.3916 323.7512 15.48034069185726
TIANMU-1 06             
1 55976U 23039D   26199.90654819  .00009229  00000+0  17455-3 0  9994
2 55976  97.5242  15.4113 0002694  26.2919 333.8467 15.48634998185755
FENGYUN 3G              
1 56232U 23055A   26199.94968634  .00014393  00000+0  22558-3 0  9993
2 56232  49.9914 182.1929 0006921  73.5199 286.6529 15.53897435184944
METEOR-M2 3             
1 57166U 23091A   26199.92725929 -.00000024  00000+0  85558-5 0  9994
2 57166  98.6066 254.2531 0005119  81.9976 278.1784 14.24049111159032
TIANMU-1 07             
1 57399U 23101A   26199.95107890  .00003212  00000+0  11268-3 0  9994
2 57399  97.2573 249.8939 0003485  56.8822 303.2753 15.30140344166509
TIANMU-1 08             
1 57400U 23101B   26199.98303260  .00003231  00000+0  11330-3 0  9990
2 57400  97.2561 249.6911 0004241  36.2943 323.8585 15.30144068166502
TIANMU-1 09             
1 57401U 23101C   26199.96569275  .00003194  00000+0  11189-3 0  9999
2 57401  97.2520 249.0739 0004088  55.9332 304.2296 15.30185755166509
TIANMU-1 10             
1 57402U 23101D   26199.93390332  .00003325  00000+0  11648-3 0  9999
2 57402  97.2599 250.1257 0005325  44.0648 316.1017 15.30159268166499
FENGYUN 3F              
1 57490U 23111A   26199.96540137  .00000004  00000+0  22200-4 0  9998
2 57490  98.6823 269.3798 0001203  75.4782 284.6528 14.19943808153377
ARKTIKA-M 2             
1 58584U 23198A   26196.17500106  .00000129  00000+0  00000+0 0  9997
2 58584  63.2178 151.2342 6910736 267.3397  18.7345  2.00608092 18886
TIANMU-1 11             
1 58645U 23205A   26199.96345674  .00002708  00000+0  10400-3 0  9995
2 58645  97.3443 221.0270 0006945 245.1460 114.9058 15.27285063142374
TIANMU-1 12             
1 58646U 23205B   26199.41207066  .00002823  00000+0  10887-3 0  9995
2 58646  97.3431 220.2298 0006094 220.4884 139.5903 15.27114343142277
TIANMU-1 13             
1 58647U 23205C   26199.90420626  .00002836  00000+0  10937-3 0  9999
2 58647  97.3459 220.9954 0006219 197.5396 162.5629 15.27109857142348
TIANMU-1 14             
1 58648U 23205D   26199.95401699  .00002798  00000+0  10780-3 0  9997
2 58648  97.3396 220.2014 0006814 204.9442 155.1468 15.27154118142355
TIANMU-1 19             
1 58660U 23208A   26199.90400883  .00004419  00000+0  14553-3 0  9997
2 58660  97.4528 316.3801 0004973 184.8088 175.3106 15.32009169142189
