OBJECT_NAME,OBJECT_ID,EPOCH,MEAN_MOTION,ECCENTRICITY,INCLINATION,RA_OF_ASC_NODE,ARG_OF_PERICENTER,MEAN_ANOMALY,EPHEMERIS_TYPE,CLASSIFICATION_TYPE,NORAD_CAT_ID,ELEMENT_SET_NO,REV_AT_EPOCH,BSTAR,MEAN_MOTION_DOT,MEAN_MOTION_DDOT
FENGYUN 3D,2017-072A,2026-07-18T22:21:14.702688,14.19743969,.00013287,99.0151,174.9309,6.5717,353.5476,0,U,43010,999,44949,-.71223444E-4,-.197E-5,0
NOAA 20 (JPSS-1),2017-073A,2026-07-18T22:21:30.532032,14.19516914,.00015246,98.7772,139.1131,120.4647,239.6680,0,U,43013,999,44897,.3554686E-4,.31E-6,0
GOES 17,2018-022A,2026-07-18T13:51:38.716416,1.00270818,.0000625,1.0159,85.2106,68.0976,261.4779,0,U,43226,999,3073,0,-.19E-5,0
SENTINEL-3B,2018-039A,2026-07-18T21:19:17.893920,14.26736983,.00012326,98.6233,266.9633,118.8601,241.2703,0,U,43437,999,42864,.34743424E-4,.4E-6,0
FENGYUN 2H,2018-050A,2026-07-18T18:46:38.786304,1.00266889,.00022074,3.1110,78.7054,132.7913,85.8178,0,U,43491,999,2975,0,-.134E-5,0
METOP-C,2018-087A,2026-07-18T21:11:39.750144,14.21503433,.00021193,98.6627,258.9046,88.9010,271.2410,0,U,43689,999,39933,.33682141E-4,.3E-6,0
GEO-KOMPSAT-2A,2018-100A,2026-07-18T17:15:20.195136,1.00272974,.00023394,0.0293,155.2838,300.9900,227.3318,0,U,43823,999,2794,0,-.35E-5,0
METEOR-M2 2,2019-038A,2026-07-18T22:12:51.752736,14.24373424,.00004585,98.9165,187.6824,354.2744,5.8429,0,U,44387,999,36581,-.726061E-5,-.63E-6,0
ARKTIKA-M 1,2021-016A,2026-07-14T09:46:38.558208,2.00611590,.7297332,63.2662,53.6722,270.0591,14.4994,0,U,47719,999,3933,0,-.301E-5,0
FENGYUN 3E,2021-062A,2026-07-18T21:52:58.259424,14.19907065,.00020583,98.7502,202.9672,32.6040,327.5263,0,U,49008,999,26108,.6972507E-4,.104E-5,0
GOES 18,2022-021A,2026-07-18T14:23:38.723136,1.00272027,.00004707,0.0124,94.1316,73.8898,207.2831,0,U,51850,999,690,0,.9E-6,0
NOAA 21 (JPSS-2),2022-150A,2026-07-18T21:26:25.926432,14.19541411,.00028992,98.7059,138.1501,98.2068,261.9437,0,U,54234,999,19104,.22173895E-4,.3E-7,0
METEOSAT-12 (MTG-I1),2022-170C,2026-07-18T18:58:38.631360,1.00268791,.00039699,0.7290,20.3648,81.2614,119.2576,0,U,54743,999,1329,0,-.15E-6,0
TIANMU-1 03,2023-039A,2026-07-18T22:10:51.053664,15.48108802,.00022578,97.5249,15.1587,14.0943,346.0370,0,U,55973,999,18574,.16804025E-3,.8718E-4,0
TIANMU-1 04,2023-039B,2026-07-18T23:10:38.866368,15.48739737,.00026446,97.5190,14.3582,357.9862,2.1377,0,U,55974,999,18576,.17278359E-3,.9168E-4,0
TIANMU-1 05,2023-039C,2026-07-18T21:45:23.569920,15.48034069,.00026366,97.5234,14.7433,36.3916,323.7512,0,U,55975,999,18572,.16609037E-3,.8593E-4,0
TIANMU-1 06,2023-039D,2026-07-18T21:45:25.763616,15.48634998,.00026942,97.5242,15.4113,26.2919,333.8467,0,U,55976,999,18575,.17455409E-3,.9229E-4,0
FENGYUN 3G,2023-055A,2026-07-18T22:47:32.899776,15.53897435,.00069219,49.9914,182.1929,73.5199,286.6529,0,U,56232,999,18494,.22558003E-3,.14393E-3,0
METEOR-M2 3,2023-091A,2026-07-18T22:15:15.202656,14.24049111,.00051193,98.6066,254.2531,81.9976,278.1784,0,U,57166,999,15903,.8555785E-5,-.24E-6,0
TIANMU-1 07,2023-101A,2026-07-18T22:49:33.216960,15.30140344,.00034856,97.2573,249.8939,56.8822,303.2753,0,U,57399,999,16650,.11268409E-3,.3212E-4,0
TIANMU-1 08,2023-101B,2026-07-18T23:35:34.016640,15.30144068,.00042417,97.2561,249.6911,36.2943,323.8585,0,U,57400,999,16650,.11330297E-3,.3231E-4,0
TIANMU-1 09,2023-101C,2026-07-18T23:10:35.853600,15.30185755,.00040881,97.2520,249.0739,55.9332,304.2296,0,U,57401,999,16650,.11189112E-3,.3194E-4,0
TIANMU-1 10,2023-101D,2026-07-18T22:24:49.246848,15.30159268,.00053255,97.2599,250.1257,44.0648,316.1017,0,U,57402,999,16649,.11647984E-3,.3325E-4,0
FENGYUN 3F,2023-111A,2026-07-18T23:10:10.678368,14.19943808,.00012032,98.6823,269.3798,75.4782,284.6528,0,U,57490,999,15337,.22199512E-4,.4E-7,0
ARKTIKA-M 2,2023-198A,2026-07-15T04:12:00.091584,2.00608092,.69107365,63.2178,151.2342,267.3397,18.7345,0,U,58584,999,1888,0,.129E-5,0
TIANMU-1 11,2023-205A,2026-07-18T23:07:22.662336,15.27285063,.0006945,97.3443,221.0270,245.1460,114.9058,0,U,58645,999,14237,.10400129E-3,.2708E-4,0
TIANMU-1 12,2023-205B,2026-07-18T09:53:22.905024,15.27114343,.00060948,97.3431,220.2298,220.4884,139.5903,0,U,58646,999,14227,.10886909E-3,.2823E-4,0
TIANMU-1 13,2023-205C,2026-07-18T21:42:03.420864,15.27109857,.00062197,97.3459,220.9954,197.5396,162.5629,0,U,58647,999,14234,.10937037E-3,.2836E-4,0
TIANMU-1 14,2023-205D,2026-07-18T22:53:47.067936,15.27154118,.00068145,97.3396,220.2014,204.9442,155.1468,0,U,58648,999,14235,.10780004E-3,.2798E-4,0
TIANMU-1 19,2023-208A,2026-07-18T21:41:46.362912,15.32009169,.00049737,97.4528,316.3801,184.8088,175.3106,0,U,58660,999,14218,.1455291E-3,.4419E-4,0
